GLOBALSTAR M094         
1 39074U 13005C   23279.08676155 -.00000082  00000+0  11934-3 0  9994
2 39074  51.9945 270.1419 0000492  48.6063 311.4846 12.62268221494088
GLOBALSTAR M096         
1 39075U 13005D   23278.78311504 -.00000087  00000+0  94274-4 0  9999
2 39075  52.0084 319.0969 0000391  50.6046 309.4856 12.62264485492949
GLOBALSTAR M078         
1 39076U 13005E   23278.67729612 -.00000092  00000+0  64737-4 0  9998
2 39076  51.9888  44.7658 0000558 206.1965 153.8873 12.62261620491554
GLOBALSTAR M095         
1 39077U 13005F   23279.02082169 -.00000095  00000+0  50626-4 0  9993
2 39077  51.9816  41.2272 0000047  45.1074 314.9796 12.62269127491818
GLOBALSTAR M087         
1 52888U 22064A   23278.48012420 -.00000084  00000+0  85189-4 0  9995
2 52888  51.9778  20.0041 0010079  77.4126 282.7901 13.37553875 63309
